BLUEBON                 
1 62688U 25009CH  26068.70316231  .00010452  00000+0  37313-3 0  9992
2 62688  97.4017 152.2033 0001193  43.3900 316.7434 15.29047253 63767
STARLINK-35597          
1 66493U 25263J   26068.15307148  .00041609  00000+0  15119-2 0  9995
2 66493  43.0012 354.0031 0001310 261.5589  98.5114 15.27605625 18812
